[
  {
    "OBJECT_NAME": "MOZHAYETS 4 (RS-22)",
    "OBJECT_ID": "2003-042A",
    "EPOCH": "2025-06-21T20:20:59.460288",
    "MEAN_MOTION": 14.72380327,
    "ECCENTRICITY": 0.0010832,
    "INCLINATION": 98.3288,
    "RA_OF_ASC_NODE": 342.5961,
    "ARG_OF_PERICENTER": 337.3458,
    "MEAN_ANOMALY": 152.6467,
    "EPHEMERIS_TYPE": 0,
    "CLASSIFICATION_TYPE": "U",
    "NORAD_CAT_ID": 27939,
    "ELEMENT_SET_NO": 999,
    "REV_AT_EPOCH": 16263,
    "BSTAR": 0.0001286,
    "MEAN_MOTION_DOT": 7.61e-06,
    "MEAN_MOTION_DDOT": 0
  },
  {
    "OBJECT_NAME": "CUBESAT XI-V",
    "OBJECT_ID": "2005-043F",
    "EPOCH": "2025-06-21T08:29:18.671712",
    "MEAN_MOTION": 14.71048267,
    "ECCENTRICITY": 0.0013208,
    "INCLINATION": 98.2511,
    "RA_OF_ASC_NODE": 316.8517,
    "ARG_OF_PERICENTER": 269.2519,
    "MEAN_ANOMALY": 90.7173,
    "EPHEMERIS_TYPE": 0,
    "CLASSIFICATION_TYPE": "U",
    "NORAD_CAT_ID": 28895,
    "ELEMENT_SET_NO": 999,
    "REV_AT_EPOCH": 4867,
    "BSTAR": 0.00018306,
    "MEAN_MOTION_DOT": 1.073e-05,
    "MEAN_MOTION_DDOT": 0
  },
  {
    "OBJECT_NAME": "CUTE-1.7+APD II (CO-65)",
    "OBJECT_ID": "2008-021C",
    "EPOCH": "2025-06-21T21:49:36.085152",
    "MEAN_MOTION": 15.0453603,
    "ECCENTRICITY": 0.0010379,
    "INCLINATION": 97.7859,
    "RA_OF_ASC_NODE": 144.165,
    "ARG_OF_PERICENTER": 159.1767,
    "MEAN_ANOMALY": 200.9884,
    "EPHEMERIS_TYPE": 0,
    "CLASSIFICATION_TYPE": "U",
    "NORAD_CAT_ID": 32785,
    "ELEMENT_SET_NO": 999,
    "REV_AT_EPOCH": 93100,
    "BSTAR": 0.00023158,
    "MEAN_MOTION_DOT": 3.185e-05,
    "MEAN_MOTION_DDOT": 0
  },
  {
    "OBJECT_NAME": "SEEDS II (CO-66)",
    "OBJECT_ID": "2008-021J",
    "EPOCH": "2025-06-21T08:45:11.325888",
    "MEAN_MOTION": 15.18950101,
    "ECCENTRICITY": 0.0005571,
    "INCLINATION": 97.7271,
    "RA_OF_ASC_NODE": 152.67,
    "ARG_OF_PERICENTER": 116.4987,
    "MEAN_ANOMALY": 243.6818,
    "EPHEMERIS_TYPE": 0,
    "CLASSIFICATION_TYPE": "U",
    "NORAD_CAT_ID": 32791,
    "ELEMENT_SET_NO": 999,
    "REV_AT_EPOCH": 93228,
    "BSTAR": 0.00039731,
    "MEAN_MOTION_DOT": 8.236e-05,
    "MEAN_MOTION_DDOT": 0
  },
  {
    "OBJECT_NAME": "YUBILEINY (RS-30)",
    "OBJECT_ID": "2008-025A",
    "EPOCH": "2025-06-21T19:05:54.699936",
    "MEAN_MOTION": 12.43165487,
    "ECCENTRICITY": 0.0019569,
    "INCLINATION": 82.5019,
    "RA_OF_ASC_NODE": 219.5812,
    "ARG_OF_PERICENTER": 23.1914,
    "MEAN_ANOMALY": 337.0045,
    "EPHEMERIS_TYPE": 0,
    "CLASSIFICATION_TYPE": "U",
    "NORAD_CAT_ID": 32953,
    "ELEMENT_SET_NO": 999,
    "REV_AT_EPOCH": 77505,
    "BSTAR": 0.00020043,
    "MEAN_MOTION_DOT": 3.8e-07,
    "MEAN_MOTION_DDOT": 0
  },
  {
    "OBJECT_NAME": "KKS-1 (KISEKI)",
    "OBJECT_ID": "2009-002H",
    "EPOCH": "2025-06-21T13:04:00.810048",
    "MEAN_MOTION": 14.81656847,
    "ECCENTRICITY": 0.0008795,
    "INCLINATION": 98.12,
    "RA_OF_ASC_NODE": 84.7731,
    "ARG_OF_PERICENTER": 27.4422,
    "MEAN_ANOMALY": 332.7253,
    "EPHEMERIS_TYPE": 0,
    "CLASSIFICATION_TYPE": "U",
    "NORAD_CAT_ID": 33499,
    "ELEMENT_SET_NO": 999,
    "REV_AT_EPOCH": 88276,
    "BSTAR": 0.00013506,
    "MEAN_MOTION_DOT": 1.008e-05,
    "MEAN_MOTION_DDOT": 0
  },
  {
    "OBJECT_NAME": "SWISSCUBE",
    "OBJECT_ID": "2009-051B",
    "EPOCH": "2025-06-21T16:21:01.813536",
    "MEAN_MOTION": 14.61363028,
    "ECCENTRICITY": 0.0005591,
    "INCLINATION": 98.4294,
    "RA_OF_ASC_NODE": 69.1427,
    "ARG_OF_PERICENTER": 252.5081,
    "MEAN_ANOMALY": 107.5509,
    "EPHEMERIS_TYPE": 0,
    "CLASSIFICATION_TYPE": "U",
    "NORAD_CAT_ID": 35932,
    "ELEMENT_SET_NO": 999,
    "REV_AT_EPOCH": 83652,
    "BSTAR": 0.00015741,
    "MEAN_MOTION_DOT": 7.29e-06,
    "MEAN_MOTION_DDOT": 0
  },
  {
    "OBJECT_NAME": "BEESAT-1",
    "OBJECT_ID": "2009-051C",
    "EPOCH": "2025-06-21T12:33:51.955200",
    "MEAN_MOTION": 14.60772986,
    "ECCENTRICITY": 0.0004033,
    "INCLINATION": 98.4225,
    "RA_OF_ASC_NODE": 69.3149,
    "ARG_OF_PERICENTER": 270.22,
    "MEAN_ANOMALY": 89.8538,
    "EPHEMERIS_TYPE": 0,
    "CLASSIFICATION_TYPE": "U",
    "NORAD_CAT_ID": 35933,
    "ELEMENT_SET_NO": 999,
    "REV_AT_EPOCH": 83651,
    "BSTAR": 0.00013672,
    "MEAN_MOTION_DOT": 6.18e-06,
    "MEAN_MOTION_DDOT": 0
  },
  {
    "OBJECT_NAME": "ITUPSAT1",
    "OBJECT_ID": "2009-051E",
    "EPOCH": "2025-06-21T03:20:03.653952",
    "MEAN_MOTION": 14.59568385,
    "ECCENTRICITY": 0.0006321,
    "INCLINATION": 98.432,
    "RA_OF_ASC_NODE": 68.455,
    "ARG_OF_PERICENTER": 281.6038,
    "MEAN_ANOMALY": 78.4452,
    "EPHEMERIS_TYPE": 0,
    "CLASSIFICATION_TYPE": "U",
    "NORAD_CAT_ID": 35935,
    "ELEMENT_SET_NO": 999,
    "REV_AT_EPOCH": 83605,
    "BSTAR": 0.0001297,
    "MEAN_MOTION_DOT": 5.68e-06,
    "MEAN_MOTION_DDOT": 0
  },
  {
    "OBJECT_NAME": "XIWANG-1 (HOPE-1)",
    "OBJECT_ID": "2009-072B",
    "EPOCH": "2025-06-21T04:05:04.658784",
    "MEAN_MOTION": 13.16425441,
    "ECCENTRICITY": 0.0007338,
    "INCLINATION": 100.3495,
    "RA_OF_ASC_NODE": 127.7023,
    "ARG_OF_PERICENTER": 344.3453,
    "MEAN_ANOMALY": 15.7432,
    "EPHEMERIS_TYPE": 0,
    "CLASSIFICATION_TYPE": "U",
    "NORAD_CAT_ID": 36122,
    "ELEMENT_SET_NO": 999,
    "REV_AT_EPOCH": 74550,
    "BSTAR": -1.8289e-05,
    "MEAN_MOTION_DOT": -5.1e-07,
    "MEAN_MOTION_DDOT": 0
  },
  {
    "OBJECT_NAME": "O/OREOS (USA 219)",
    "OBJECT_ID": "2010-062C",
    "EPOCH": "2025-06-21T10:28:29.958240",
    "MEAN_MOTION": 14.91510965,
    "ECCENTRICITY": 0.0013778,
    "INCLINATION": 71.9686,
    "RA_OF_ASC_NODE": 176.1065,
    "ARG_OF_PERICENTER": 26.4278,
    "MEAN_ANOMALY": 333.7591,
    "EPHEMERIS_TYPE": 0,
    "CLASSIFICATION_TYPE": "U",
    "NORAD_CAT_ID": 37224,
    "ELEMENT_SET_NO": 999,
    "REV_AT_EPOCH": 6281,
    "BSTAR": 0.00016717,
    "MEAN_MOTION_DOT": 1.615e-05,
    "MEAN_MOTION_DDOT": 0
  },
  {
    "OBJECT_NAME": "JUGNU",
    "OBJECT_ID": "2011-058B",
    "EPOCH": "2025-06-21T18:25:49.853568",
    "MEAN_MOTION": 14.13607337,
    "ECCENTRICITY": 0.0018659,
    "INCLINATION": 19.9622,
    "RA_OF_ASC_NODE": 337.8199,
    "ARG_OF_PERICENTER": 56.2605,
    "MEAN_ANOMALY": 67.4698,
    "EPHEMERIS_TYPE": 0,
    "CLASSIFICATION_TYPE": "U",
    "NORAD_CAT_ID": 37839,
    "ELEMENT_SET_NO": 999,
    "REV_AT_EPOCH": 70807,
    "BSTAR": 7.0935e-05,
    "MEAN_MOTION_DOT": 4.02e-06,
    "MEAN_MOTION_DDOT": 0
  },
  {
    "OBJECT_NAME": "SRMSAT",
    "OBJECT_ID": "2011-058D",
    "EPOCH": "2025-06-21T21:32:38.598144",
    "MEAN_MOTION": 14.11439679,
    "ECCENTRICITY": 0.0011821,
    "INCLINATION": 19.9724,
    "RA_OF_ASC_NODE": 80.0045,
    "ARG_OF_PERICENTER": 199.8246,
    "MEAN_ANOMALY": 220.832,
    "EPHEMERIS_TYPE": 0,
    "CLASSIFICATION_TYPE": "U",
    "NORAD_CAT_ID": 37841,
    "ELEMENT_SET_NO": 999,
    "REV_AT_EPOCH": 70707,
    "BSTAR": 5.6163e-05,
    "MEAN_MOTION_DOT": 3.68e-06,
    "MEAN_MOTION_DDOT": 0
  },
  {
    "OBJECT_NAME": "STRAND-1",
    "OBJECT_ID": "2013-009E",
    "EPOCH": "2025-06-21T10:39:38.854944",
    "MEAN_MOTION": 14.36826518,
    "ECCENTRICITY": 0.0007812,
    "INCLINATION": 98.3825,
    "RA_OF_ASC_NODE": 356.8286,
    "ARG_OF_PERICENTER": 223.3786,
    "MEAN_ANOMALY": 136.6787,
    "EPHEMERIS_TYPE": 0,
    "CLASSIFICATION_TYPE": "U",
    "NORAD_CAT_ID": 39090,
    "ELEMENT_SET_NO": 999,
    "REV_AT_EPOCH": 64525,
    "BSTAR": 9.1695e-05,
    "MEAN_MOTION_DOT": 2.28e-06,
    "MEAN_MOTION_DDOT": 0
  }
]