MOZHAYETS 4 (RS-22)     
1 27939U 03042A   25172.84791042  .00000761  00000+0  12860-3 0  9994
2 27939  98.3288 342.5961 0010832 337.3458 152.6467 14.72380327162633
CUBESAT XI-V            
1 28895U 05043F   25172.35368833  .00001073  00000+0  18306-3 0  9991
2 28895  98.2511 316.8517 0013208 269.2519  90.7173 14.71048267 48671
CUTE-1.7+APD II (CO-65) 
1 32785U 08021C   25172.90944543  .00003185  00000+0  23158-3 0  9999
2 32785  97.7859 144.1650 0010379 159.1767 200.9884 15.04536030931000
SEEDS II (CO-66)        
1 32791U 08021J   25172.36471442  .00008236  00000+0  39731-3 0  9995
2 32791  97.7271 152.6700 0005571 116.4987 243.6818 15.18950101932289
YUBILEINY (RS-30)       
1 32953U 08025A   25172.79577199  .00000038  00000+0  20043-3 0  9990
2 32953  82.5019 219.5812 0019569  23.1914 337.0045 12.43165487775054
KKS-1 (KISEKI)          
1 33499U 09002H   25172.54445382  .00001008  00000+0  13506-3 0  9997
2 33499  98.1200  84.7731 0008795  27.4422 332.7253 14.81656847882766
SWISSCUBE               
1 35932U 09051B   25172.68127099  .00000729  00000+0  15741-3 0  9994
2 35932  98.4294  69.1427 0005591 252.5081 107.5509 14.61363028836527
BEESAT-1                
1 35933U 09051C   25172.52351800  .00000618  00000+0  13672-3 0  9995
2 35933  98.4225  69.3149 0004033 270.2200  89.8538 14.60772986836514
ITUPSAT1                
1 35935U 09051E   25172.13893118  .00000568  00000+0  12970-3 0  9991
2 35935  98.4320  68.4550 0006321 281.6038  78.4452 14.59568385836057
XIWANG-1 (HOPE-1)       
1 36122U 09072B   25172.17019281 -.00000051  00000+0 -18289-4 0  9997
2 36122 100.3495 127.7023 0007338 344.3453  15.7432 13.16425441745501
O/OREOS (USA 219)       
1 37224U 10062C   25172.43645785  .00001615  00000+0  16717-3 0  9993
2 37224  71.9686 176.1065 0013778  26.4278 333.7591 14.91510965 62817
JUGNU                   
1 37839U 11058B   25172.76793812  .00000402  00000+0  70935-4 0  9998
2 37839  19.9622 337.8199 0018659  56.2605  67.4698 14.13607337708071
SRMSAT                  
1 37841U 11058D   25172.89766896  .00000368  00000+0  56163-4 0  9995
2 37841  19.9724  80.0045 0011821 199.8246 220.8320 14.11439679707079
STRAND-1                
1 39090U 13009E   25172.44419971  .00000228  00000+0  91695-4 0  9995
2 39090  98.3825 356.8286 0007812 223.3786 136.6787 14.36826518645259
